[{"OBJECT_NAME":"STARLINK-5170","OBJECT_ID":"2022-136M","EPOCH":"2026-03-09T22:47:38.098464","MEAN_MOTION":15.08834497,"ECCENTRICITY":0.00011991,"INCLINATION":53.2195,"RA_OF_ASC_NODE":342.9211,"ARG_OF_PERICENTER":105.0717,"MEAN_ANOMALY":255.0408,"EPHEMERIS_TYPE":0,"CLASSIFICATION_TYPE":"U","NORAD_CAT_ID":54062,"ELEMENT_SET_NO":999,"REV_AT_EPOCH":18688,"BSTAR":9.6227376e-5,"MEAN_MOTION_DOT":1.244e-5,"MEAN_MOTION_DDOT":0},{"OBJECT_NAME":"STARLINK-5895","OBJECT_ID":"2023-037BC","EPOCH":"2026-03-09T22:23:45.381696","MEAN_MOTION":15.07243555,"ECCENTRICITY":0.00049855,"INCLINATION":69.9972,"RA_OF_ASC_NODE":260.028,"ARG_OF_PERICENTER":264.4993,"MEAN_ANOMALY":95.5602,"EPHEMERIS_TYPE":0,"CLASSIFICATION_TYPE":"U","NORAD_CAT_ID":55964,"ELEMENT_SET_NO":999,"REV_AT_EPOCH":16460,"BSTAR":0.00072849946,"MEAN_MOTION_DOT":0.00010921,"MEAN_MOTION_DDOT":0}]
